[
    {
        "CCSDS_OMM_VERS": "3.0",
        "COMMENT": "GENERATED VIA SPACE-TRACK.ORG API",
        "CREATION_DATE": "2025-03-05T18:48:33",
        "ORIGINATOR": "18 SPCS",
        "OBJECT_NAME": "COSMOS 2584(GLONASS)",
        "OBJECT_ID": "2025-042A",
        "CENTER_NAME": "EARTH",
        "REF_FRAME": "TEME",
        "TIME_SYSTEM": "UTC",
        "MEAN_ELEMENT_THEORY": "SGP4",
        "EPOCH": "2025-03-05T08:49:15.599424",
        "MEAN_MOTION": "2.12878091",
        "ECCENTRICITY": "0.00026880",
        "INCLINATION": "64.8229",
        "RA_OF_ASC_NODE": "88.7725",
        "ARG_OF_PERICENTER": "303.9787",
        "MEAN_ANOMALY": "56.0471",
        "EPHEMERIS_TYPE": "0",
        "CLASSIFICATION_TYPE": "U",
        "NORAD_CAT_ID": "63130",
        "ELEMENT_SET_NO": "999",
        "REV_AT_EPOCH": "5",
        "BSTAR": "0.00000000000000",
        "MEAN_MOTION_DOT": "0.00000017",
        "MEAN_MOTION_DDOT": "0.0000000000000",
        "SEMIMAJOR_AXIS": "25525.908",
        "PERIOD": "676.443",
        "APOAPSIS": "19154.634",
        "PERIAPSIS": "19140.911",
        "OBJECT_TYPE": "PAYLOAD",
        "RCS_SIZE": null,
        "COUNTRY_CODE": "CIS",
        "LAUNCH_DATE": "2025-03-02",
        "SITE": "PKMTR",
        "DECAY_DATE": null,
        "FILE": "4660136",
        "GP_ID": "282349589",
        "TLE_LINE0": "0 COSMOS 2584(GLONASS)",
        "TLE_LINE1": "1 63130U 25042A   25064.36754166  .00000017  00000-0  00000-0 0  9999",
        "TLE_LINE2": "2 63130  64.8229  88.7725 0002688 303.9787  56.0471  2.12878091    50"
    }
]